BEESAT-4                
1 41619U 16040W   21279.61925761  .00003955  00000-0  15565-3 0  9997
2 41619  97.2575 332.5646 0008856 302.9582  57.0805 15.26172198281966
CAS-2T & KS-1Q          
1 41847U 16066G   21280.13526087  .00000234  00000-0  46385-4 0  9997
2 41847  98.5892 339.6636 0364022 246.8985 109.3450 14.38246180257937
NAYIF-1 (EO-88)         
1 42017U 17008BX  21279.72119853  .00004766  00000-0  17221-3 0  9996
2 42017  97.3057 345.3130 0007457  78.9802 281.2277 15.28917552258259
ZHUHAI-1 02 (CAS-4B)    
1 42759U 17034B   21280.19632884  .00001235  00000-0  87041-4 0  9991
2 42759  43.0184 286.6787 0007027 148.9972 304.5031 15.10419407238044
ZHUHAI-1 01 (CAS-4A)    
1 42761U 17034D   21280.18002619  .00001137  00000-0  81016-4 0  9997
2 42761  43.0190 285.7404 0007376 149.3258 299.9039 15.10505604238049
MAX VALIER SAT          
1 42778U 17036P   21279.67581530  .00002472  00000-0  10458-3 0  9997
2 42778  97.2436 324.5975 0012996 138.0901 222.1334 15.24032057238228
RADFXSAT (FOX-1B)       
1 43017U 17073E   21279.71115077  .00001709  00000-0  13699-3 0  9991
2 43017  97.6940 179.2296 0252746 297.4944  60.0783 14.79815814209578
FOX-1D (AO-92)          
1 43137U 18004AC  21279.77943954  .00003222  00000-0  12902-3 0  9996
2 43137  97.3982 352.6514 0008973 168.3606 191.7841 15.25742978207630
DIWATA-2B               
1 43678U 18084H   21280.06714490  .00000632  00000-0  68388-4 0  9991
2 43678  97.9375  46.0136 0010956  48.6284 311.5848 14.91805321160071
ES'HAIL 2               
1 43700U 18090A   21280.08521639  .00000143  00000-0  00000+0 0  9996
2 43700   0.0138 248.2809 0002226 330.2219 213.9608  1.00272521 10733
FOX-1CLIFF (AO-95)      
1 43770U 18099N   21279.72778574  .00000956  00000-0  91427-4 0  9993
2 43770  97.6548 347.4063 0015450  50.1756 310.0822 14.95456585155085
ITASAT 1                
1 43786U 18099AE  21280.16093327  .00000482  00000-0  48303-4 0  9995
2 43786  97.6573 348.5852 0016112  41.7785 318.4663 14.95737521155180
JY1SAT (JO-97)          
1 43803U 18099AX  21280.17233526  .00000378  00000-0  38681-4 0  9995
2 43803  97.6532 348.3373 0015919  41.0391 319.2025 14.96010183155192
UWE-4                   
1 43880U 18111E   21279.67983032  .00001175  00000-0  10690-3 0  9997
2 43880  97.6765 185.4659 0013715  91.6082 268.6711 14.97014496151728
NEXUS (FO-99)           
1 43937U 19003F   21279.66433382  .00003578  00000-0  13954-3 0  9993
2 43937  97.1659 318.3625 0022034 342.4213  17.6262 15.26336498151225
PSAT2 (NO-104)          
1 44354U 19036R   21279.21240722  .00025287  00000-0  32069-3 0  9997
2 44354  28.5258 106.5820 0311560  40.2129 322.1084 15.17209932125780
BRICSAT2 (NO-103)       
1 44355U 19036S   21279.47338042  .00081624 -45754-5  77215-3 0  9999
2 44355  28.5264  39.1422 0231263 149.6615 211.7594 15.38478395126494
JAISAT-1                
1 44419U 19038F   21279.87537546  .00002807  00000-0  15694-3 0  9994
2 44419  97.6014 244.2640 0019161 290.1355  69.7815 15.14179091124658
DUCHIFAT-3              
1 44854U 19089C   21280.05765839  .00001287  00000-0  10869-3 0  9993
2 44854  36.9670 160.5544 0009466 320.4789  39.5262 14.99673486 99867
CAS-6 (TO-108)          
1 44881U 19093C   21280.11362672  .00000169  00000-0  28297-4 0  9996
2 44881  97.9176 357.6894 0013778 292.5196  67.4566 14.81488181 97260
RS-44 & BREEZE-KM R/B   
1 44909U 19096E   21279.80231992  .00000003  00000-0 -33910-4 0  9990
2 44909  82.5247  38.8120 0217352 192.5188 167.0464 12.79711144 83064
ORBITAL FACTORY 2 (OF-2)
1 45113U 19071C   21279.19011066  .00007737  00000-0  22187-3 0  9994
2 45113  51.6412 220.2336 0011060 338.2436  21.8076 15.36812996 94197
HUSKYSAT-1 (HO-107)     
1 45119U 19071J   21279.52718103  .00006584  00000-0  19075-3 0  9994
2 45119  51.6407 217.9756 0010497 336.1750  23.8746 15.36762974 94247
BY70-2                  
1 45857U 20042B   21280.14082422  .00002361  00000-0  33916-3 0  9990
2 45857  97.9781 354.7182 0010701 206.1616 153.9054 14.77359556 68039
SALSAT                  
1 46495U 20068K   21279.93642653  .00000480  00000-0  39560-4 0  9992
2 46495  97.6995 216.8099 0018771  57.7701 302.5334 15.03579085 56083
BY70-3                  
1 46839U 20079N   21280.24710244  .00006916  00000-0  20828-3 0  9990
2 46839  97.2322 351.8920 0007818 154.1751 295.4197 15.34623686 51347
RADFXSAT-2 (AO-109)     
1 47311U 21002C   21279.58887860  .00002370  00000-0  11248-3 0  9993
2 47311  60.6856 235.0418 0040882 104.3644 256.1987 15.22098156 39780
UVSQ-SAT                
1 47438U 21006AB  21279.86640723  .00001884  00000-0  10887-3 0  9990
2 47438  97.4758 339.0447 0014194  75.8013 284.4794 15.13438714 38906
DIY-1 (ARDUIQUBE)       
1 47963U 21022AH  21279.47440537  .00005091  00000-0  33468-3 0  9993
2 47963  97.5469 179.8168 0017843 288.3613  71.5674 15.07903090 28627
